215P/NEAT,e,10.4227,57.2336,258.4333,4.387016,0.1072631,0.17992650,260.5014,04/07.0/2017,2000,g 11.0,4.0
# From MPC 10028
216P/LINEAR,e,9.0468,359.8664,151.5182,3.875326,0.1291938,0.44547550,40.1852,04/07.0/2017,2000,g 13.0,4.0
# From MPC 75726
217P/LINEAR,e,12.8566,125.4547,246.9544,3.956061,0.1252592,0.68772626,347.4036,04/07.0/2017,2000,g 12.0,4.0
# From MPC 95214
218P/LINEAR,e,2.7256,176.0252,59.6704,3.096122,0.1809160,0.62185613,129.2887,04/07.0/2017,2000,g 16.0,4.0
# From MPC 10028
219P/LINEAR,e,11.5287,231.0239,107.4079,3.652904,0.1411714,0.35250739,6.4079,04/07.0/2017,2000,g 11.0,4.0
# From MPC 96868
220P/McNaught,e,8.1254,150.1111,180.6274,3.115179,0.1792584,0.50126893,118.9193,04/07.0/2017,2000,g 15.0,4.0
# From MPC 93589
221P/LINEAR,e,11.4267,229.7467,39.9408,3.460173,0.1531289,0.49211785,97.2779,04/07.0/2017,2000,g 14.5,4.0
# From MPC 92277
222P/LINEAR,e,5.1405,6.8755,346.3106,2.893626,0.2002352,0.71728624,202.2896,04/07.0/2017,2000,g 20.0,4.0
# From MPC102102
223P/Skiff,e,27.0164,346.7939,37.8534,4.155186,0.1163639,0.41492952,283.1430,04/07.0/2017,2000,g 12.0,4.0
# From MPC 75727
224P/LINEAR-NEAT,e,13.4262,40.4732,16.3559,3.412952,0.1563179,0.41582489,49.6046,04/07.0/2017,2000,g 15.5,4.0
# From MPC 75727
225P/LINEAR,e,21.3350,14.1823,3.9194,3.653870,0.1411154,0.63750026,32.8879,04/07.0/2017,2000,g 18.0,4.0
# From MPC101100
226P/Pigott-LINEAR-Kowalski,e,44.0048,54.0075,341.1205,3.769714,0.1346609,0.52878163,28.8000,04/07.0/2017,2000,g 12.5,4.0
# From MPC102956
227P/Catalina-LINEAR,e,6.5271,49.8005,90.2574,3.584071,0.1452577,0.50114466,348.9362,04/07.0/2017,2000,g 16.5,2.0
# From MPC 75728
228P/LINEAR,e,7.9116,31.0093,115.2839,4.176670,0.1154673,0.17789354,236.6626,04/07.0/2017,2000,g 14.5,2.0
# From MPC101100
229P/Gibbs,e,26.0677,157.9091,224.1403,3.936113,0.1262126,0.37609228,354.4840,04/07.0/2017,2000,g 13.0,4.0
# From MPC 95735
230P/LINEAR,e,14.6378,112.1421,309.2530,3.405231,0.1568499,0.56392931,79.2802,04/07.0/2017,2000,g 13.0,4.0
# From MPC102102
231P/LINEAR-NEAT,e,12.3300,133.0458,42.5623,4.021254,0.1222255,0.24807882,262.5431,04/07.0/2017,2000,g 14.5,2.0
# From MPC 75728
232P/Hill,e,14.6300,56.0349,53.6054,4.487059,0.1036958,0.33521029,284.3359,04/07.0/2017,2000,g 11.5,4.0
# From MPC 92986
233P/La Sagra,e,11.2836,74.9272,27.1576,3.030292,0.1868432,0.41113513,121.7730,04/07.0/2017,2000,g 15.0,4.0
# From MPC103849
234P/LINEAR,e,11.5261,179.7233,358.1097,3.811643,0.1324450,0.25285592,352.6156,04/07.0/2017,2000,g 12.0,4.0
# From MPC 75728
235P/LINEAR,e,8.9040,204.4605,333.7169,3.990544,0.1236391,0.31525440,317.4215,04/07.0/2017,2000,g 12.0,4.0
# From MPC 75728
236P/LINEAR,e,16.3334,245.6729,119.2712,3.732518,0.1366788,0.50770488,328.9502,04/07.0/2017,2000,g 14.0,4.0
# From MPC 99821
237P/LINEAR,e,14.0228,245.4309,25.0502,3.510045,0.1498770,0.43452060,26.5742,04/07.0/2017,2000,g 14.5,2.0
# From MPC102956
238P/Read,e,1.2646,51.6542,324.9213,3.164847,0.1750552,0.25238844,29.1379,04/07.0/2017,2000,g 14.5,4.0
# From MPC 75729
239P/LINEAR,e,11.3049,255.9281,220.3935,4.470403,0.1042759,0.63130500,292.9421,04/07.0/2017,2000,g 17.5,2.0
# From MPC 94676
240P/NEAT,e,23.5035,74.9332,352.1358,3.871653,0.1293777,0.44898417,307.6929,04/07.0/2017,2000,g 12.0,4.0
# From MPC 75729
241P/LINEAR,e,20.8762,305.7483,110.5379,4.958457,0.0892656,0.60852358,219.6032,04/07.0/2017,2000,g 13.5,4.0
# From MPC 81861
242P/Spahr,e,32.5183,180.6979,246.8701,5.482481,0.0767783,0.27641343,141.0722,04/07.0/2017,2000,g  8.0,4.0
# From MPC 82322
243P/NEAT,e,7.6416,87.6617,283.5679,3.829101,0.1315403,0.35892376,293.4219,04/07.0/2017,2000,g 12.5,4.0
# From MPC 88331
244P/Scotti,e,2.2577,354.0600,92.9182,4.896553,0.0909638,0.19726903,173.2891,04/07.0/2017,2000,g  9.0,4.0
# From MPC 75729
245P/WISE,e,21.2057,316.7235,316.6397,4.041859,0.1212921,0.45822048,322.6897,04/07.0/2017,2000,g 14.0,4.0
# From MPC 93589
246P/NEAT,e,15.9820,78.7452,175.9953,4.021855,0.1221981,0.28606705,186.8123,04/07.0/2017,2000,g 10.5,4.0
# From MPC 75729
247P/LINEAR,e,13.6615,54.0171,47.4863,3.969641,0.1246170,0.62518007,284.7223,04/07.0/2017,2000,g 16.5,2.0
# From MPC 75730
248P/Gibbs,e,6.3516,207.7770,210.1378,5.987624,0.0672701,0.63796968,151.6594,04/07.0/2017,2000,g 14.0,4.0
# From MPC 92986
249P/LINEAR,e,8.3953,239.1718,65.5999,2.762792,0.2146258,0.81948889,106.7358,04/07.0/2017,2000,g 15.5,4.0
# From MPC 75730
250P/Larson,e,13.2900,73.6807,45.0842,3.732284,0.1366917,0.40706168,318.8315,04/07.0/2017,2000,g 14.5,4.0
# From MPC 75730
251P/LINEAR,e,23.4202,219.4061,31.1490,3.507581,0.1500349,0.50606162,344.9216,04/07.0/2017,2000,g 16.5,2.0
# From MPC102956
252P/LINEAR,e,10.4220,190.9438,343.3307,3.046858,0.1853215,0.67298609,71.8568,04/07.0/2017,2000,g 17.5,4.0
# From MPC 81473
253P/PANSTARRS,e,4.9406,146.8835,230.7439,3.468214,0.1525967,0.41271992,299.6000,04/07.0/2017,2000,g 14.5,4.0
# From MPC 81473
254P/McNaught,e,32.4818,129.5755,219.1472,4.624446,0.0991093,0.32136153,233.8666,04/07.0/2017,2000,g 11.0,4.0
# From NK 2214
255P/Levy,e,18.2536,279.7083,179.7123,3.037950,0.1861372,0.66776446,355.1480,04/07.0/2017,2000,g 20.0,4.0
# From MPC 84027
256P/LINEAR,e,27.6313,81.3775,124.2296,4.632793,0.0988416,0.41963126,146.3467,04/07.0/2017,2000,g 14.0,2.0
# From MPC 88332
257P/Catalina,e,20.2397,207.7827,117.9214,3.756056,0.1353960,0.43096548,190.2298,04/07.0/2017,2000,g 11.5,4.0
# From MPC 79655
258P/PANSTARRS,e,6.7443,126.2838,26.0775,4.404805,0.1066140,0.21018404,235.3794,04/07.0/2017,2000,g 13.0,4.0
# From MPC 79655
259P/Garradd,e,15.8894,51.4845,257.4937,2.731388,0.2183379,0.33770059,334.0166,04/07.0/2017,2000,g 15.5,4.0
# From MPC102102
260P/McNaught,e,15.5613,351.3780,15.9088,3.647555,0.1414820,0.60602493,234.4984,04/07.0/2017,2000,g 13.5,4.0
# From MPC102102
261P/Larson,e,6.0348,292.4462,64.9982,3.510616,0.1498405,0.42195624,240.0110,04/07.0/2017,2000,g 14.0,4.0
# From MPC 82322
262P/McNaught-Russell,e,29.1087,217.9450,171.0826,6.890007,0.0544972,0.81434864,86.4885,04/07.0/2017,2000,g 13.5,4.0
# From MPC 82323
263P/Gibbs,e,11.5310,105.8324,34.5964,3.061096,0.1840300,0.58746824,327.6397,04/07.0/2017,2000,g 18.0,4.0
# From MPC102102
264P/Larsen,e,25.1498,220.9042,346.4987,3.896981,0.1281184,0.37373170,251.1528,04/07.0/2017,2000,g 13.0,4.0
# From MPC 79870
265P/LINEAR,e,14.6345,344.5121,32.6181,4.226137,0.1134459,0.64971682,200.2181,04/07.0/2017,2000,g 14.5,4.0
# From MPC 90771
266P/Christensen,e,3.4280,4.9972,98.0283,3.531581,0.1485082,0.33971277,195.3453,04/07.0/2017,2000,g 12.5,4.0
# From MPC 81862
267P/LONEOS,e,6.1144,228.7804,113.8570,3.219936,0.1705820,0.61441845,279.6906,04/07.0/2017,2000,g 19.5,4.0
# From MPC 92277
268P/Bernardi,e,16.0981,127.6180,0.2925,4.560015,0.1012173,0.46965422,71.9929,04/07.0/2017,2000,g 14.0,4.0
# From MPC 93589
269P/Jedicke,e,6.9017,242.4710,226.2950,7.189436,0.0511284,0.44178479,45.8362,04/07.0/2017,2000,g 10.0,4.0
# From MPC 88332
270P/Gehrels,e,2.9044,223.0192,210.3212,6.691015,0.0569464,0.46978475,79.0000,04/07.0/2017,2000,g  8.0,4.0
# From MPC 92277
271P/van Houten-Lemmon,e,6.8575,9.2905,36.7811,7.064599,0.0524895,0.39333283,71.5952,04/07.0/2017,2000,g 11.0,4.0
# From MPC 81862
272P/NEAT,e,18.0898,109.4978,28.0862,4.447935,0.1050670,0.45528944,157.5792,04/07.0/2017,2000,g 16.0,2.0
# From MPC 82723
273P/Pons-Gambart,e,136.4593,320.4129,20.1655,31.59691,0.0055493,0.97424512,0.0000,12/17.5884/2012,2000,g 11.5,4.0
# From MPC 88332
274P/Tombaugh-Tenagra,e,15.8236,81.3569,38.6313,4.365847,0.1080441,0.43924089,162.4890,04/07.0/2017,2000,g 13.0,4.0
# From MPC 81862
275P/Hermann,e,21.3445,348.7213,174.1277,5.764979,0.0712045,0.71421704,111.1789,04/07.0/2017,2000,g 15.0,4.0
# From MPC 84935
276P/Vorobjov,e,14.8698,211.7446,203.1081,5.299057,0.0807990,0.27648598,127.4822,04/07.0/2017,2000,g 11.5,4.0
# From MPC 82323
277P/LINEAR,e,16.7506,276.3474,152.1682,3.857750,0.1300777,0.50373171,182.4410,04/07.0/2017,2000,g 14.0,4.0
# From MPC 83523
278P/McNaught,e,6.6842,15.4939,237.8970,3.697411,0.1386301,0.43423733,186.1378,04/07.0/2017,2000,g 14.0,4.0
# From MPC 10028
279P/La Sagra,e,5.0462,346.2466,5.8561,3.580295,0.1454876,0.39697449,38.7745,04/07.0/2017,2000,g 14.0,4.0
# From MPC 89013
280P/Larsen,e,11.7701,131.4815,104.6056,4.527870,0.1022971,0.41840152,124.0174,04/07.0/2017,2000,g 12.5,4.0
# From MPC 83145
281P/MOSS,e,4.7211,87.1815,27.2941,4.863102,0.0919039,0.17205967,164.1087,04/07.0/2017,2000,g 11.0,4.0
# From unp
282P/,e,5.8105,9.3576,217.0769,4.249825,0.1124987,0.18929728,173.4445,04/07.0/2017,2000,g 13.5,2.0
# From MPC 84027
283P/Spacewatch,e,14.4677,161.2009,22.2295,4.136816,0.1171399,0.48612554,171.0170,04/07.0/2017,2000,g 16.0,2.0
# From MPC 93589
284P/McNaught,e,11.8616,144.2950,202.8399,3.672092,0.1400663,0.37594760,132.8049,04/07.0/2017,2000,g 13.0,4.0
# From MPC 85339
285P/LINEAR,e,25.0220,185.4715,178.5210,4.508334,0.1029627,0.61805028,142.7052,04/07.0/2017,2000,g 15.0,4.0
# From MPC 90771
286P/Christensen,e,17.0313,283.9402,24.7200,4.116856,0.1179928,0.42366955,140.0882,04/07.0/2017,2000,g 14.0,4.0
# From MPC 96868
287P/Christensen,e,16.3022,139.0424,188.9088,4.174648,0.1155512,0.26897457,96.0672,04/07.0/2017,2000,g 13.5,4.0
# From unp
288P/,e,3.2401,83.1867,281.0323,3.049065,0.1851203,0.20107072,27.7383,04/07.0/2017,2000,g 16.0,2.0
# From MPC102102
289P/Blanpain,e,5.8987,68.9323,9.8224,3.045974,0.1854021,0.68446841,176.7125,04/07.0/2017,2000,g 10.0,4.0
# From MPC 95214
290P/Jager,e,19.0612,303.4074,180.7947,6.131428,0.0649175,0.64771840,72.8278,04/07.0/2017,2000,g 10.5,4.0
# From MPC 89314
291P/NEAT,e,6.0870,239.1748,176.1489,4.504961,0.1030784,0.43910404,124.6176,04/07.0/2017,2000,g 13.0,4.0
# From MPC 93589
292P/Li,e,24.2437,91.0857,319.5757,6.121975,0.0650679,0.58831913,75.4110,04/07.0/2017,2000,g 12.5,4.0
# From MPC 92278
293P/Spacewatch,e,9.0592,78.4248,41.2090,3.638954,0.1419839,0.41871585,167.9926,04/07.0/2017,2000,g 14.5,4.0
# From MPC 89013
294P/LINEAR,e,18.2167,312.6583,235.4508,3.205860,0.1717067,0.59457278,194.0754,04/07.0/2017,2000,g 15.5,4.0
# From MPC 93589
